{"type": "FeatureCollection", "features": [ {"type": "Feature", "properties": {"norad_id": 43683, "name": "BEIDOU-3 G1 (C59)", "group": "gnss", "lat": -0.7704423902473482, "lon": -59.84783939965967, "alt_km": 35791.442691786084, "timestamp": "2025-12-05T05:43:15.352583+00:00", "meta": {"OBJECT_NAME": "BEIDOU-3 G1 (C59)", "OBJECT_ID": "2018-085A", "EPOCH": "2025-12-04T16:06:20.935296", "MEAN_MOTION": 1.00273204, "ECCENTRICITY": 0.000199, "INCLINATION": 2.586, "RA_OF_ASC_NODE": 103.2041, "ARG_OF_PERICENTER": 64.8015, "MEAN_ANOMALY": 287.3699, "EPHEMERIS_TYPE": 0, "CLASSIFICATION_TYPE": "U", "NORAD_CAT_ID": 43683, "ELEMENT_SET_NO": 999, "REV_AT_EPOCH": 2610, "BSTAR": 0, "MEAN_MOTION_DOT": -2.64e-06, "MEAN_MOTION_DDOT": 0}, "tle": {"line1": "1 43683U 18085A   25338.67107564 -.00000264  00000+0  00000+0 0  9994", "line2": "2 43683   2.5860 103.2041 0001990  64.8015 287.3699  1.00273204 26103"}}, "geometry": {"type": "Point", "coordinates": [-59.84783939965967, -0.7704423902473482]}}, {"type": "Feature", "properties": {"norad_id": 43687, "name": "COSMOS 2529 (757)", "group": "gnss", "lat": -59.69749263618393, "lon": 74.6562797239658, "alt_km": 19117.646637994178, "timestamp": "2025-12-05T05:43:15.352595+00:00", "meta": {"OBJECT_NAME": "COSMOS 2529 (757)", "OBJECT_ID": "2018-086A", "EPOCH": "2025-12-03T00:44:36.468960", "MEAN_MOTION": 2.13101888, "ECCENTRICITY": 0.00072932, "INCLINATION": 64.2917, "RA_OF_ASC_NODE": 199.2166, "ARG_OF_PERICENTER": 254.4618, "MEAN_ANOMALY": 105.5545, "EPHEMERIS_TYPE": 0, "CLASSIFICATION_TYPE": "U", "NORAD_CAT_ID": 43687, "ELEMENT_SET_NO": 999, "REV_AT_EPOCH": 5510, "BSTAR": 0, "MEAN_MOTION_DOT": 1.06e-06, "MEAN_MOTION_DDOT": 0}, "tle": {"line1": "1 43687U 18086A   25337.03097765  .00000106  00000+0  00000+0 0  9993", "line2": "2 43687  64.2917 199.2166 0007293 254.4618 105.5545  2.13101888 55102"}}, "geometry": {"type": "Point", "coordinates": [74.6562797239658, -59.69749263618393]}}, {"type": "Feature", "properties": {"norad_id": 43706, "name": "BEIDOU-3 M17 (C36)", "group": "gnss", "lat": -20.20247456097491, "lon": 24.30560398355653, "alt_km": 21534.497218916993, "timestamp": "2025-12-05T05:43:15.352606+00:00", "meta": {"OBJECT_NAME": "BEIDOU-3 M17 (C36)", "OBJECT_ID": "2018-093A", "EPOCH": "2025-12-03T14:10:37.280064", "MEAN_MOTION": 1.86228161, "ECCENTRICITY": 0.00063465, "INCLINATION": 54.1727, "RA_OF_ASC_NODE": 188.9327, "ARG_OF_PERICENTER": 306.3477, "MEAN_ANOMALY": 234.3147, "EPHEMERIS_TYPE": 0, "CLASSIFICATION_TYPE": "U", "NORAD_CAT_ID": 43706, "ELEMENT_SET_NO": 999, "REV_AT_EPOCH": 4789, "BSTAR": 0, "MEAN_MOTION_DOT": 1.14e-06, "MEAN_MOTION_DDOT": 0}, "tle": {"line1": "1 43706U 18093A   25337.59070926  .00000114  00000+0  00000+0 0  9993", "line2": "2 43706  54.1727 188.9327 0006346 306.3477 234.3147  1.86228161 47892"}}, "geometry": {"type": "Point", "coordinates": [24.30560398355653, -20.20247456097491]}}, {"type": "Feature", "properties": {"norad_id": 43707, "name": "BEIDOU-3 M18 (C37)", "group": "gnss", "lat": -45.625707972038995, "lon": 141.27315201067293, "alt_km": 21523.10164590701, "timestamp": "2025-12-05T05:43:15.352619+00:00", "meta": {"OBJECT_NAME": "BEIDOU-3 M18 (C37)", "OBJECT_ID": "2018-093B", "EPOCH": "2025-12-04T06:09:34.457184", "MEAN_MOTION": 1.86226429, "ECCENTRICITY": 0.0006367, "INCLINATION": 54.1734, "RA_OF_ASC_NODE": 188.9019, "ARG_OF_PERICENTER": 351.3735, "MEAN_ANOMALY": 8.7081, "EPHEMERIS_TYPE": 0, "CLASSIFICATION_TYPE": "U", "NORAD_CAT_ID": 43707, "ELEMENT_SET_NO": 999, "REV_AT_EPOCH": 4790, "BSTAR": 0, "MEAN_MOTION_DOT": 1.06e-06, "MEAN_MOTION_DDOT": 0}, "tle": {"line1": "1 43707U 18093B   25338.25664881  .00000106  00000+0  00000+0 0  9998", "line2": "2 43707  54.1734 188.9019 0006367 351.3735   8.7081  1.86226429 47906"}}, "geometry": {"type": "Point", "coordinates": [141.27315201067293, -45.625707972038995]}}, {"type": "Feature", "properties": {"norad_id": 43873, "name": "GPS BIII-1  (PRN 04)", "group": "gnss", "lat": 41.20153952702483, "lon": -117.0471251554129, "alt_km": 20140.126576252474, "timestamp": "2025-12-05T05:43:15.352632+00:00", "meta": {"OBJECT_NAME": "GPS BIII-1  (PRN 04)", "OBJECT_ID": "2018-109A", "EPOCH": "2025-12-04T13:52:59.167776", "MEAN_MOTION": 2.00553165, "ECCENTRICITY": 0.0037177, "INCLINATION": 55.5628, "RA_OF_ASC_NODE": 99.8692, "ARG_OF_PERICENTER": 194.6577, "MEAN_ANOMALY": 176.2017, "EPHEMERIS_TYPE": 0, "CLASSIFICATION_TYPE": "U", "NORAD_CAT_ID": 43873, "ELEMENT_SET_NO": 999, "REV_AT_EPOCH": 5117, "BSTAR": 0, "MEAN_MOTION_DOT": -5e-08, "MEAN_MOTION_DDOT": 0}, "tle": {"line1": "1 43873U 18109A   25338.57846259 -.00000005  00000+0  00000+0 0  9995", "line2": "2 43873  55.5628  99.8692 0037177 194.6577 176.2017  2.00553165 51170"}}, "geometry": {"type": "Point", "coordinates": [-117.0471251554129, 41.20153952702483]}}, {"type": "Feature", "properties": {"norad_id": 44204, "name": "BEIDOU-3 IGSO-1 (C38)", "group": "gnss", "lat": -43.835257650054956, "lon": -104.18214439749009, "alt_km": 35687.08206854034, "timestamp": "2025-12-05T05:43:15.352643+00:00", "meta": {"OBJECT_NAME": "BEIDOU-3 IGSO-1 (C38)", "OBJECT_ID": "2019-023A", "EPOCH": "2025-11-19T14:15:02.708640", "MEAN_MOTION": 1.00252177, "ECCENTRICITY": 0.0026966, "INCLINATION": 58.4003, "RA_OF_ASC_NODE": 39.8168, "ARG_OF_PERICENTER": 221.2202, "MEAN_ANOMALY": 126.9723, "EPHEMERIS_TYPE": 0, "CLASSIFICATION_TYPE": "U", "NORAD_CAT_ID": 44204, "ELEMENT_SET_NO": 999, "REV_AT_EPOCH": 510, "BSTAR": 0, "MEAN_MOTION_DOT": -2.26e-06, "MEAN_MOTION_DDOT": 0}, "tle": {"line1": "1 44204U 19023A   25323.59378135 -.00000226  00000+0  00000+0 0  9994", "line2": "2 44204  58.4003  39.8168 0026966 221.2202 126.9723  1.00252177  5102"}}, "geometry": {"type": "Point", "coordinates": [-104.18214439749009, -43.835257650054956]}}, {"type": "Feature", "properties": {"norad_id": 44231, "name": "BEIDOU-2 G8 (C01)", "group": "gnss", "lat": -1.2677352196413896, "lon": -55.38994467798019, "alt_km": 35754.78378969181, "timestamp": "2025-12-05T05:43:15.352657+00:00", "meta": {"OBJECT_NAME": "BEIDOU-2 G8 (C01)", "OBJECT_ID": "2019-027A", "EPOCH": "2025-12-04T16:07:35.814720", "MEAN_MOTION": 1.00269798, "ECCENTRICITY": 0.000841, "INCLINATION": 1.6401, "RA_OF_ASC_NODE": 74.7078, "ARG_OF_PERICENTER": 254.683, "MEAN_ANOMALY": 130.8165, "EPHEMERIS_TYPE": 0, "CLASSIFICATION_TYPE": "U", "NORAD_CAT_ID": 44231, "ELEMENT_SET_NO": 999, "REV_AT_EPOCH": 2413, "BSTAR": 0, "MEAN_MOTION_DOT": -2.34e-06, "MEAN_MOTION_DDOT": 0}, "tle": {"line1": "1 44231U 19027A   25338.67194230 -.00000234  00000+0  00000+0 0  9994", "line2": "2 44231   1.6401  74.7078 0008410 254.6830 130.8165  1.00269798 24138"}}, "geometry": {"type": "Point", "coordinates": [-55.38994467798019, -1.2677352196413896]}}, {"type": "Feature", "properties": {"norad_id": 44299, "name": "COSMOS 2534 (758)", "group": "gnss", "lat": 24.93439590525933, "lon": -147.95316925372273, "alt_km": 19132.849399034887, "timestamp": "2025-12-05T05:43:15.352671+00:00", "meta": {"OBJECT_NAME": "COSMOS 2534 (758)", "OBJECT_ID": "2019-030A", "EPOCH": "2025-12-04T10:51:29.869920", "MEAN_MOTION": 2.1310196, "ECCENTRICITY": 0.0009061, "INCLINATION": 64.3652, "RA_OF_ASC_NODE": 199.1723, "ARG_OF_PERICENTER": 283.5363, "MEAN_ANOMALY": 221.3863, "EPHEMERIS_TYPE": 0, "CLASSIFICATION_TYPE": "U", "NORAD_CAT_ID": 44299, "ELEMENT_SET_NO": 999, "REV_AT_EPOCH": 5077, "BSTAR": 0, "MEAN_MOTION_DOT": 9.8e-07, "MEAN_MOTION_DDOT": 0}, "tle": {"line1": "1 44299U 19030A   25338.45242905  .00000098  00000+0  00000+0 0  9998", "line2": "2 44299  64.3652 199.1723 0009061 283.5363 221.3863  2.13101960 50771"}}, "geometry": {"type": "Point", "coordinates": [-147.95316925372273, 24.93439590525933]}}, {"type": "Feature", "properties": {"norad_id": 44337, "name": "BEIDOU-3 IGSO-2 (C39)", "group": "gnss", "lat": 46.06892502417621, "lon": -65.71272585354201, "alt_km": 35762.80934361337, "timestamp": "2025-12-05T05:43:15.352682+00:00", "meta": {"OBJECT_NAME": "BEIDOU-3 IGSO-2 (C39)", "OBJECT_ID": "2019-035A", "EPOCH": "2025-12-01T05:17:49.661952", "MEAN_MOTION": 1.00274502, "ECCENTRICITY": 0.00376064, "INCLINATION": 55.2223, "RA_OF_ASC_NODE": 160.6035, "ARG_OF_PERICENTER": 202.2564, "MEAN_ANOMALY": 266.4761, "EPHEMERIS_TYPE": 0, "CLASSIFICATION_TYPE": "U", "NORAD_CAT_ID": 44337, "ELEMENT_SET_NO": 999, "REV_AT_EPOCH": 2368, "BSTAR": 0, "MEAN_MOTION_DOT": -2.5e-07, "MEAN_MOTION_DDOT": 0}, "tle": {"line1": "1 44337U 19035A   25335.22071368 -.00000025  00000+0  00000+0 0  9992", "line2": "2 44337  55.2223 160.6035 0037606 202.2564 266.4761  1.00274502 23688"}}, "geometry": {"type": "Point", "coordinates": [-65.71272585354201, 46.06892502417621]}}, {"type": "Feature", "properties": {"norad_id": 44506, "name": "GPS BIII-2  (PRN 18)", "group": "gnss", "lat": 19.55384906698148, "lon": -7.133260586002566, "alt_km": 20332.34805825735, "timestamp": "2025-12-05T05:43:15.352694+00:00", "meta": {"OBJECT_NAME": "GPS BIII-2  (PRN 18)", "OBJECT_ID": "2019-056A", "EPOCH": "2025-12-02T10:49:28.764768", "MEAN_MOTION": 2.00565569, "ECCENTRICITY": 0.00578163, "INCLINATION": 55.7251, "RA_OF_ASC_NODE": 338.9617, "ARG_OF_PERICENTER": 198.402, "MEAN_ANOMALY": 332.9603, "EPHEMERIS_TYPE": 0, "CLASSIFICATION_TYPE": "U", "NORAD_CAT_ID": 44506, "ELEMENT_SET_NO": 999, "REV_AT_EPOCH": 4612, "BSTAR": 0, "MEAN_MOTION_DOT": -6.1e-07, "MEAN_MOTION_DDOT": 0}, "tle": {"line1": "1 44506U 19056A   25336.45102737 -.00000061  00000+0  00000+0 0  9994", "line2": "2 44506  55.7251 338.9617 0057816 198.4020 332.9603  2.00565569 46121"}}, "geometry": {"type": "Point", "coordinates": [-7.133260586002566, 19.55384906698148]}}]}